{
  "norad_id": 65590,
  "name": "COSMOS 2596 [GLONASS-K1]",
  "history": [
    {
      "epoch": "2026-03-27T14:45:45.838368",
      "apogee_km": 19161.37359222768,
      "perigee_km": 19098.689818451177,
      "latitude_deg": -20.080383210292023,
      "longitude_deg": -17.949068480171263,
      "semi_major_axis_km": 25508.168705339427,
      "eccentricity": 0.0012287,
      "inclination_deg": 64.6808,
      "raan_deg": 317.8263,
      "arg_perigee_deg": 316.8794,
      "mean_anomaly_deg": 256.7022,
      "mean_motion_rev_day": 2.13100192
    }
  ]
}